start=new Date('2022-06-06T00:00:00.000Z').valueOf();
sats=[{"ARG_OF_PERICENTER":"66.9747","CENTER_NAME":"EARTH","COUNTRY_CODE":"US","OBJECT_TYPE":"PAYLOAD","RA_OF_ASC_NODE":"304.4747","OBJECT_NAME":"STARLINK-2265","CLASSIFICATION_TYPE":"U","TIME_SYSTEM":"UTC","SITE":"AFETR","APOAPSIS":"555.682","ECCENTRICITY":"0.00013710","GP_ID":"205446200","ELEMENT_SET_NO":"999","EPOCH":"2022-06-05T22:00:00.999936","SEMIMAJOR_AXIS":"6932.867","MEAN_ANOMALY":"0.0030","PERIAPSIS":"553.781","OBJECT_ID":"2021-024AB","BSTAR":"0.00206470000000","NORAD_CAT_ID":"48002","MEAN_MOTION_DOT":"0.00028639","EPHEMERIS_TYPE":"0","RCS_SIZE":"LARGE","FILE":"3482995","REV_AT_EPOCH":"130","MEAN_MOTION_DDOT":"0.0000000000000","PERIOD":"95.748","REF_FRAME":"TEME","LAUNCH_DATE":"2021-03-24","DECAY_DATE":null,"MEAN_ELEMENT_THEORY":"SGP4","TLE_LINE1":"1 48002U 21024AB  22156.91667824  .00028639  00000-0  20647-2 0  9991","MEAN_MOTION":"15.03950251","TLE_LINE2":"2 48002  53.0556 304.4747 0001371  66.9747   0.0030 15.03950251  1308","INCLINATION":"53.0556"},{"ELEMENT_SET_NO":"999","GP_ID":"205417489","ECCENTRICITY":"0.00017500","APOAPSIS":"548.398","EPOCH":"2022-06-05T21:35:50.328384","COUNTRY_CODE":"US","CENTER_NAME":"EARTH","ARG_OF_PERICENTER":"61.8675","SITE":"AFETR","TIME_SYSTEM":"UTC","CLASSIFICATION_TYPE":"U","RA_OF_ASC_NODE":"19.3213","OBJECT_TYPE":"PAYLOAD","OBJECT_NAME":"STARLINK-2263","REF_FRAME":"TEME","LAUNCH_DATE":"2021-03-24","PERIOD":"95.592","MEAN_MOTION_DDOT":"0.0000000000000","REV_AT_EPOCH":"6711","RCS_SIZE":"LARGE","FILE":"3482708","TLE_LINE2":"2 48003  53.0558  19.3213 0001750  61.8675 298.2491 15.06408973 67111","INCLINATION":"53.0558","MEAN_ELEMENT_THEORY":"SGP4","TLE_LINE1":"1 48003U 21024AC  22156.89988806 -.00001005  00000-0 -48526-4 0  9993","MEAN_MOTION":"15.06408973","DECAY_DATE":null,"OBJECT_ID":"2021-024AC","PERIAPSIS":"545.974","MEAN_ANOMALY":"298.2491","SEMIMAJOR_AXIS":"6925.321","EPHEMERIS_TYPE":"0","MEAN_MOTION_DOT":"-0.00001005","BSTAR":"-0.00004852600000","NORAD_CAT_ID":"48003"},{"EPOCH":"2022-06-05T19:27:07.535232","GP_ID":"205445199","ECCENTRICITY":"0.00015220","APOAPSIS":"548.252","ELEMENT_SET_NO":"999","CLASSIFICATION_TYPE":"U","OBJECT_TYPE":"PAYLOAD","RA_OF_ASC_NODE":"349.7101","OBJECT_NAME":"STARLINK-2254","SITE":"AFETR","TIME_SYSTEM":"UTC","ARG_OF_PERICENTER":"68.0668","COUNTRY_CODE":"US","CENTER_NAME":"EARTH","MEAN_ELEMENT_THEORY":"SGP4","MEAN_MOTION":"15.06405023","TLE_LINE1":"1 48005U 21024AE  22156.81050388  .00000991  00000-0  85393-4 0  9996","DECAY_DATE":null,"TLE_LINE2":"2 48005  53.0551 349.7101 0001522  68.0668 292.0483 15.06405023 67992","INCLINATION":"53.0551","REV_AT_EPOCH":"6799","MEAN_MOTION_DDOT":"0.0000000000000","RCS_SIZE":"LARGE","FILE":"3482995","REF_FRAME":"TEME","LAUNCH_DATE":"2021-03-24","PERIOD":"95.592","EPHEMERIS_TYPE":"0","MEAN_MOTION_DOT":"0.00000991","BSTAR":"0.00008539300000","NORAD_CAT_ID":"48005","MEAN_ANOMALY":"292.0483","SEMIMAJOR_AXIS":"6925.333","PERIAPSIS":"546.144","OBJECT_ID":"2021-024AE"},{"NORAD_CAT_ID":"48008","BSTAR":"-0.00048435000000","MEAN_MOTION_DOT":"-0.00007488","EPHEMERIS_TYPE":"0","OBJECT_ID":"2021-024AH","PERIAPSIS":"546.278","SEMIMAJOR_AXIS":"6925.347","MEAN_ANOMALY":"31.8711","INCLINATION":"53.0550","TLE_LINE2":"2 48008  53.0550 284.2321 0001348  66.9300  31.8711 15.06400569  1303","DECAY_DATE":null,"MEAN_MOTION":"15.06400569","TLE_LINE1":"1 48008U 21024AH  22156.91667824 -.00007488  00000-0 -48435-3 0  9994","MEAN_ELEMENT_THEORY":"SGP4","PERIOD":"95.592","LAUNCH_DATE":"2021-03-24","REF_FRAME":"TEME","FILE":"3482995","RCS_SIZE":"LARGE","MEAN_MOTION_DDOT":"0.0000000000000","REV_AT_EPOCH":"130","TIME_SYSTEM":"UTC","SITE":"AFETR","OBJECT_NAME":"STARLINK-2271","RA_OF_ASC_NODE":"284.2321","OBJECT_TYPE":"PAYLOAD","CLASSIFICATION_TYPE":"U","CENTER_NAME":"EARTH","COUNTRY_CODE":"US","ARG_OF_PERICENTER":"66.9300","EPOCH":"2022-06-05T22:00:00.999936","ELEMENT_SET_NO":"999","APOAPSIS":"548.145","ECCENTRICITY":"0.00013480","GP_ID":"205445449"},{"TIME_SYSTEM":"UTC","SITE":"AFETR","OBJECT_TYPE":"PAYLOAD","RA_OF_ASC_NODE":"359.6455","OBJECT_NAME":"STARLINK-2153","CLASSIFICATION_TYPE":"U","CENTER_NAME":"EARTH","COUNTRY_CODE":"US","ARG_OF_PERICENTER":"56.8594","EPOCH":"2022-06-05T19:47:02.725440","ELEMENT_SET_NO":"999","ECCENTRICITY":"0.00015910","APOAPSIS":"548.337","GP_ID":"205446699","BSTAR":"0.00006467300000","NORAD_CAT_ID":"48009","MEAN_MOTION_DOT":"0.00000682","EPHEMERIS_TYPE":"0","OBJECT_ID":"2021-024AJ","PERIAPSIS":"546.133","SEMIMAJOR_AXIS":"6925.370","MEAN_ANOMALY":"303.2548","TLE_LINE2":"2 48009  53.0586 359.6455 0001591  56.8594 303.2548 15.06393015 67865","INCLINATION":"53.0586","DECAY_DATE":null,"MEAN_ELEMENT_THEORY":"SGP4","TLE_LINE1":"1 48009U 21024AJ  22156.82433710  .00000682  00000-0  64673-4 0  9990","MEAN_MOTION":"15.06393015","PERIOD":"95.593","REF_FRAME":"TEME","LAUNCH_DATE":"2021-03-24","RCS_SIZE":"LARGE","FILE":"3482995","REV_AT_EPOCH":"6786","MEAN_MOTION_DDOT":"0.0000000000000"},{"OBJECT_NAME":"STARLINK-2226","RA_OF_ASC_NODE":"19.2887","OBJECT_TYPE":"PAYLOAD","CLASSIFICATION_TYPE":"U","TIME_SYSTEM":"UTC","SITE":"AFETR","ARG_OF_PERICENTER":"81.8215","CENTER_NAME":"EARTH","COUNTRY_CODE":"US","EPOCH":"2022-06-05T21:41:09.191040","APOAPSIS":"548.181","ECCENTRICITY":"0.00014130","GP_ID":"205446950","ELEMENT_SET_NO":"999","NORAD_CAT_ID":"48010","BSTAR":"0.00002747300000","MEAN_MOTION_DOT":"0.00000128","EPHEMERIS_TYPE":"0","SEMIMAJOR_AXIS":"6925.337","MEAN_ANOMALY":"278.2934","OBJECT_ID":"2021-024AK","PERIAPSIS":"546.223","DECAY_DATE":null,"MEAN_MOTION":"15.06403757","TLE_LINE1":"1 48010U 21024AK  22156.90357860  .00000128  00000-0  27473-4 0  9994","MEAN_ELEMENT_THEORY":"SGP4","INCLINATION":"53.0562","TLE_LINE2":"2 48010  53.0562  19.2887 0001413  81.8215 278.2934 15.06403757 67595","FILE":"3482995","RCS_SIZE":"LARGE","REV_AT_EPOCH":"6759","MEAN_MOTION_DDOT":"0.0000000000000","PERIOD":"95.592","LAUNCH_DATE":"2021-03-24","REF_FRAME":"TEME"},{"SEMIMAJOR_AXIS":"6925.335","MEAN_ANOMALY":"297.9187","OBJECT_ID":"2021-024AL","PERIAPSIS":"546.003","BSTAR":"0.00007867200000","NORAD_CAT_ID":"48011","MEAN_MOTION_DOT":"0.00000891","EPHEMERIS_TYPE":"0","RCS_SIZE":"LARGE","FILE":"3482995","MEAN_MOTION_DDOT":"0.0000000000000","REV_AT_EPOCH":"6792","PERIOD":"95.592","REF_FRAME":"TEME","LAUNCH_DATE":"2021-03-24","DECAY_DATE":null,"MEAN_ELEMENT_THEORY":"SGP4","TLE_LINE1":"1 48011U 21024AL  22156.86024508  .00000891  00000-0  78672-4 0  9994","MEAN_MOTION":"15.06404434","TLE_LINE2":"2 48011  53.0562 359.5010 0001729  62.1977 297.9187 15.06404434 67929","INCLINATION":"53.0562","ARG_OF_PERICENTER":"62.1977","CENTER_NAME":"EARTH","COUNTRY_CODE":"US","OBJECT_TYPE":"PAYLOAD","RA_OF_ASC_NODE":"359.5010","OBJECT_NAME":"STARLINK-2272","CLASSIFICATION_TYPE":"U","TIME_SYSTEM":"UTC","SITE":"AFETR","APOAPSIS":"548.397","ECCENTRICITY":"0.00017290","GP_ID":"205445699","ELEMENT_SET_NO":"999","EPOCH":"2022-06-05T20:38:45.174912"},{"EPOCH":"2022-06-05T10:07:52.037184","ELEMENT_SET_NO":"999","APOAPSIS":"436.802","ECCENTRICITY":"0.00045210","GP_ID":"205445949","TIME_SYSTEM":"UTC","SITE":"AFETR","RA_OF_ASC_NODE":"310.6773","OBJECT_TYPE":"PAYLOAD","OBJECT_NAME":"STARLINK-2216","CLASSIFICATION_TYPE":"U","CENTER_NAME":"EARTH","COUNTRY_CODE":"US","ARG_OF_PERICENTER":"66.2016","TLE_LINE2":"2 48012  53.0556 310.6773 0004521  66.2016 293.9463 15.44203100 68573","INCLINATION":"53.0556","DECAY_DATE":null,"MEAN_ELEMENT_THEORY":"SGP4","TLE_LINE1":"1 48012U 21024AM  22156.42213006  .00012864  00000-0  28447-3 0  9997","MEAN_MOTION":"15.44203100","PERIOD":"93.252","REF_FRAME":"TEME","LAUNCH_DATE":"2021-03-24","RCS_SIZE":"LARGE","FILE":"3482995","REV_AT_EPOCH":"6857","MEAN_MOTION_DDOT":"0.0000000000000","BSTAR":"0.00028447000000","NORAD_CAT_ID":"48012","MEAN_MOTION_DOT":"0.00012864","EPHEMERIS_TYPE":"0","OBJECT_ID":"2021-024AM","PERIAPSIS":"430.643","SEMIMAJOR_AXIS":"6811.858","MEAN_ANOMALY":"293.9463"},{"EPOCH":"2022-06-05T14:49:08.197536","GP_ID":"205446201","APOAPSIS":"548.243","ECCENTRICITY":"0.00014870","ELEMENT_SET_NO":"999","CLASSIFICATION_TYPE":"U","OBJECT_NAME":"STARLINK-2243","RA_OF_ASC_NODE":"345.5903","OBJECT_TYPE":"PAYLOAD","SITE":"AFETR","TIME_SYSTEM":"UTC","ARG_OF_PERICENTER":"78.9410","COUNTRY_CODE":"US","CENTER_NAME":"EARTH","TLE_LINE1":"1 48013U 21024AN  22156.61745599 -.00001255  00000-0 -65367-4 0  9993","MEAN_MOTION":"15.06400102","MEAN_ELEMENT_THEORY":"SGP4","DECAY_DATE":null,"INCLINATION":"53.0572","TLE_LINE2":"2 48013  53.0572 345.5903 0001487  78.9410 281.1746 15.06400102 68044","MEAN_MOTION_DDOT":"0.0000000000000","REV_AT_EPOCH":"6804","FILE":"3482995","RCS_SIZE":"LARGE","LAUNCH_DATE":"2021-03-24","REF_FRAME":"TEME","PERIOD":"95.592","MEAN_MOTION_DOT":"-0.00001255","EPHEMERIS_TYPE":"0","NORAD_CAT_ID":"48013","BSTAR":"-0.00006536700000","MEAN_ANOMALY":"281.1746","SEMIMAJOR_AXIS":"6925.348","PERIAPSIS":"546.183","OBJECT_ID":"2021-024AN"},{"PERIAPSIS":"553.599","OBJECT_ID":"2021-024AP","MEAN_ANOMALY":"109.7921","SEMIMAJOR_AXIS":"6932.917","MEAN_MOTION_DOT":"0.00038274","EPHEMERIS_TYPE":"0","NORAD_CAT_ID":"48014","BSTAR":"0.00275010000000","LAUNCH_DATE":"2021-03-24","REF_FRAME":"TEME","PERIOD":"95.749","MEAN_MOTION_DDOT":"0.0000000000000","REV_AT_EPOCH":"130","FILE":"3482995","RCS_SIZE":"LARGE","INCLINATION":"53.0543","TLE_LINE2":"2 48014  53.0543 309.2815 0001707  49.6619 109.7921 15.03933895  1306","TLE_LINE1":"1 48014U 21024AP  22156.91667824  .00038274  00000-0  27501-2 0  9996","MEAN_MOTION":"15.03933895","MEAN_ELEMENT_THEORY":"SGP4","DECAY_DATE":null,"COUNTRY_CODE":"US","CENTER_NAME":"EARTH","ARG_OF_PERICENTER":"49.6619","SITE":"AFETR","TIME_SYSTEM":"UTC","CLASSIFICATION_TYPE":"U","OBJECT_NAME":"STARLINK-2283","RA_OF_ASC_NODE":"309.2815","OBJECT_TYPE":"PAYLOAD","ELEMENT_SET_NO":"999","GP_ID":"205446451","APOAPSIS":"555.966","ECCENTRICITY":"0.00017070","EPOCH":"2022-06-05T22:00:00.999936"}];
